GLOBALSTAR M063         
1 26081U 00008A   24332.92301709 -.00000023  00000+0  87906-3 0  9998
2 26081  51.9962 281.6275 0004589 293.2312 106.3306 11.86163430133694
GLOBALSTAR M062         
1 26082U 00008B   24332.70896138  .00000077  00000+0  12528-2 0  9995
2 26082  51.9863 328.2634 0007318  41.7107 129.7173 12.43452150471558
GLOBALSTAR M060         
1 26083U 00008C   24332.78003469 -.00000099  00000+0 -77080-4 0  9993
2 26083  52.0022 259.5688 0004215  69.8602 324.6422 12.17646483127834
GLOBALSTAR M065         
1 31571U 07020A   24332.91439517 -.00000072  00000+0  17944-3 0  9996
2 31571  51.9875 118.8680 0009727 212.8620 287.7046 12.61979407807995
GLOBALSTAR M069         
1 31573U 07020C   24332.73154997 -.00000075  00000+0  16399-3 0  9990
2 31573  51.9953  77.9647 0001440 109.0890  42.0849 12.53305355809050
